ONEWEB-0629             
1 55170U 23004AG  25305.53279902  .00000065  00000+0  13382-3 0  9999
2 55170  87.9125  51.1485 0001490 108.3217 251.8077 13.17648377137606
ONEWEB-0631             
1 55171U 23004AH  25305.47164272 -.00000001  00000+0 -36142-4 0  9998
2 55171  87.9226  20.6575 0002183  87.3314 272.8068 13.18686610139668
ONEWEB-0709             
1 55172U 23004AJ  25305.61106885 -.00000195  00000+0 -58564-3 0  9996
2 55172  87.8844  66.4077 0002584  94.4561 265.6863 13.11420605136042
ONEWEB-0710             
1 55173U 23004AK  25305.54714964 -.00000028  00000+0 -10475-3 0  9996
2 55173  87.9122  51.1398 0001615  95.4471 264.6845 13.17649914137609
ONEWEB-0711             
1 55174U 23004AL  25305.58223998 -.00000067  00000+0 -22539-3 0  9990
2 55174  87.8856  66.3842 0001247  76.8606 283.2661 13.11413329136008
ONEWEB-0713             
1 55175U 23004AM  25305.29571021 -.00000428  00000+0 -12428-2 0  9998
2 55175  87.8843  66.4455 0001460  90.6418 269.4877 13.11418194135951
ONEWEB-0715             
1 55176U 23004AN  25305.59581523 -.00000498  00000+0 -14399-2 0  9996
2 55176  87.8842  66.3850 0002248  86.4841 273.6544 13.11417524136031
ONEWEB-0716             
1 55177U 23004AP  25305.54039525  .00000099  00000+0  22148-3 0  9999
2 55177  87.9132  51.1412 0001827 107.8079 252.3252 13.17649403137607
ONEWEB-0717             
1 55178U 23004AQ  25305.59945793 -.00000096  00000+0 -28167-3 0  9994
2 55178  87.9133  51.0970 0001434  72.1345 287.9943 13.17650891137661
ONEWEB-0719             
1 55179U 23004AR  25305.53364729  .00000084  00000+0  18404-3 0  9991
2 55179  87.9135  51.0923 0001589 108.6925 251.4379 13.17650333137606
ONEWEB-0530             
1 55796U 23029A   25305.51706567 -.00000007  00000+0 -50130-4 0  9991
2 55796  87.9193 319.8910 0001501  76.3783 283.7518 13.20770611131099
ONEWEB-0534             
1 55797U 23029B   25305.50444097 -.00000011  00000+0 -58640-4 0  9997
2 55797  87.9184 319.8953 0001876  97.0293 263.1054 13.20770794131097
ONEWEB-0556             
1 55798U 23029C   25305.51074894  .00000006  00000+0 -16188-4 0  9997
2 55798  87.9191 319.8924 0001315 109.5753 250.5522 13.20770533131093
ONEWEB-0562             
1 55799U 23029D   25305.49811731  .00000075  00000+0  15279-3 0  9998
2 55799  87.9187 319.8793 0000957  85.2604 274.8639 13.20773027131098
ONEWEB-0563             
1 55800U 23029E   25305.49181042  .00000000  00000+0 -31543-4 0  9998
2 55800  87.9192 319.9058 0001884 101.5011 258.6334 13.20770563131089
ONEWEB-0564             
1 55801U 23029F   25305.48550093  .00000006  00000+0 -16966-4 0  9992
2 55801  87.9189 319.8854 0001488  87.3102 272.8202 13.20771430131098
