[{"OBJECT_NAME":"ONEWEB-0629","OBJECT_ID":"2023-004AG","EPOCH":"2025-11-01T12:47:13.835328","MEAN_MOTION":13.17648377,"ECCENTRICITY":0.00014906,"INCLINATION":87.9125,"RA_OF_ASC_NODE":51.1485,"ARG_OF_PERICENTER":108.3217,"MEAN_ANOMALY":251.8077,"EPHEMERIS_TYPE":0,"CLASSIFICATION_TYPE":"U","NORAD_CAT_ID":55170,"ELEMENT_SET_NO":999,"REV_AT_EPOCH":13760,"BSTAR":0.00013382316,"MEAN_MOTION_DOT":6.5e-7,"MEAN_MOTION_DDOT":0},{"OBJECT_NAME":"ONEWEB-0631","OBJECT_ID":"2023-004AH","EPOCH":"2025-11-01T11:19:09.931008","MEAN_MOTION":13.1868661,"ECCENTRICITY":0.00021836,"INCLINATION":87.9226,"RA_OF_ASC_NODE":20.6575,"ARG_OF_PERICENTER":87.3314,"MEAN_ANOMALY":272.8068,"EPHEMERIS_TYPE":0,"CLASSIFICATION_TYPE":"U","NORAD_CAT_ID":55171,"ELEMENT_SET_NO":999,"REV_AT_EPOCH":13966,"BSTAR":-3.6142124e-5,"MEAN_MOTION_DOT":-1.0e-8,"MEAN_MOTION_DDOT":0},{"OBJECT_NAME":"ONEWEB-0709","OBJECT_ID":"2023-004AJ","EPOCH":"2025-11-01T14:39:56.348640","MEAN_MOTION":13.11420605,"ECCENTRICITY":0.0002584,"INCLINATION":87.8844,"RA_OF_ASC_NODE":66.4077,"ARG_OF_PERICENTER":94.4561,"MEAN_ANOMALY":265.6863,"EPHEMERIS_TYPE":0,"CLASSIFICATION_TYPE":"U","NORAD_CAT_ID":55172,"ELEMENT_SET_NO":999,"REV_AT_EPOCH":13604,"BSTAR":-0.00058564041,"MEAN_MOTION_DOT":-1.95e-6,"MEAN_MOTION_DDOT":0},{"OBJECT_NAME":"ONEWEB-0710","OBJECT_ID":"2023-004AK","EPOCH":"2025-11-01T13:07:53.728896","MEAN_MOTION":13.17649914,"ECCENTRICITY":0.00016151,"INCLINATION":87.9122,"RA_OF_ASC_NODE":51.1398,"ARG_OF_PERICENTER":95.4471,"MEAN_ANOMALY":264.6845,"EPHEMERIS_TYPE":0,"CLASSIFICATION_TYPE":"U","NORAD_CAT_ID":55173,"ELEMENT_SET_NO":999,"REV_AT_EPOCH":13760,"BSTAR":-0.00010474644,"MEAN_MOTION_DOT":-2.8e-7,"MEAN_MOTION_DDOT":0},{"OBJECT_NAME":"ONEWEB-0711","OBJECT_ID":"2023-004AL","EPOCH":"2025-11-01T13:58:25.534272","MEAN_MOTION":13.11413329,"ECCENTRICITY":0.00012471,"INCLINATION":87.8856,"RA_OF_ASC_NODE":66.3842,"ARG_OF_PERICENTER":76.8606,"MEAN_ANOMALY":283.2661,"EPHEMERIS_TYPE":0,"CLASSIFICATION_TYPE":"U","NORAD_CAT_ID":55174,"ELEMENT_SET_NO":999,"REV_AT_EPOCH":13600,"BSTAR":-0.00022538887,"MEAN_MOTION_DOT":-6.7e-7,"MEAN_MOTION_DDOT":0},{"OBJECT_NAME":"ONEWEB-0713","OBJECT_ID":"2023-004AM","EPOCH":"2025-11-01T07:05:49.362144","MEAN_MOTION":13.11418194,"ECCENTRICITY":0.00014602,"INCLINATION":87.8843,"RA_OF_ASC_NODE":66.4455,"ARG_OF_PERICENTER":90.6418,"MEAN_ANOMALY":269.4877,"EPHEMERIS_TYPE":0,"CLASSIFICATION_TYPE":"U","NORAD_CAT_ID":55175,"ELEMENT_SET_NO":999,"REV_AT_EPOCH":13595,"BSTAR":-0.0012427661,"MEAN_MOTION_DOT":-4.28e-6,"MEAN_MOTION_DDOT":0},{"OBJECT_NAME":"ONEWEB-0715","OBJECT_ID":"2023-004AN","EPOCH":"2025-11-01T14:17:58.435872","MEAN_MOTION":13.11417524,"ECCENTRICITY":0.00022484,"INCLINATION":87.8842,"RA_OF_ASC_NODE":66.385,"ARG_OF_PERICENTER":86.4841,"MEAN_ANOMALY":273.6544,"EPHEMERIS_TYPE":0,"CLASSIFICATION_TYPE":"U","NORAD_CAT_ID":55176,"ELEMENT_SET_NO":999,"REV_AT_EPOCH":13603,"BSTAR":-0.0014398978,"MEAN_MOTION_DOT":-4.98e-6,"MEAN_MOTION_DDOT":0},{"OBJECT_NAME":"ONEWEB-0716","OBJECT_ID":"2023-004AP","EPOCH":"2025-11-01T12:58:10.149600","MEAN_MOTION":13.17649403,"ECCENTRICITY":0.00018279,"INCLINATION":87.9132,"RA_OF_ASC_NODE":51.1412,"ARG_OF_PERICENTER":107.8079,"MEAN_ANOMALY":252.3252,"EPHEMERIS_TYPE":0,"CLASSIFICATION_TYPE":"U","NORAD_CAT_ID":55177,"ELEMENT_SET_NO":999,"REV_AT_EPOCH":13760,"BSTAR":0.00022148268,"MEAN_MOTION_DOT":9.9e-7,"MEAN_MOTION_DDOT":0},{"OBJECT_NAME":"ONEWEB-0717","OBJECT_ID":"2023-004AQ","EPOCH":"2025-11-01T14:23:13.165152","MEAN_MOTION":13.17650891,"ECCENTRICITY":0.00014341,"INCLINATION":87.9133,"RA_OF_ASC_NODE":51.097,"ARG_OF_PERICENTER":72.1345,"MEAN_ANOMALY":287.9943,"EPHEMERIS_TYPE":0,"CLASSIFICATION_TYPE":"U","NORAD_CAT_ID":55178,"ELEMENT_SET_NO":999,"REV_AT_EPOCH":13766,"BSTAR":-0.00028166628,"MEAN_MOTION_DOT":-9.6e-7,"MEAN_MOTION_DDOT":0},{"OBJECT_NAME":"ONEWEB-0719","OBJECT_ID":"2023-004AR","EPOCH":"2025-11-01T12:48:27.125856","MEAN_MOTION":13.17650333,"ECCENTRICITY":0.00015897,"INCLINATION":87.9135,"RA_OF_ASC_NODE":51.0923,"ARG_OF_PERICENTER":108.6925,"MEAN_ANOMALY":251.4379,"EPHEMERIS_TYPE":0,"CLASSIFICATION_TYPE":"U","NORAD_CAT_ID":55179,"ELEMENT_SET_NO":999,"REV_AT_EPOCH":13760,"BSTAR":0.00018403924,"MEAN_MOTION_DOT":8.4e-7,"MEAN_MOTION_DDOT":0},{"OBJECT_NAME":"ONEWEB-0530","OBJECT_ID":"2023-029A","EPOCH":"2025-11-01T12:24:34.473888","MEAN_MOTION":13.20770611,"ECCENTRICITY":0.00015019,"INCLINATION":87.9193,"RA_OF_ASC_NODE":319.891,"ARG_OF_PERICENTER":76.3783,"MEAN_ANOMALY":283.7518,"EPHEMERIS_TYPE":0,"CLASSIFICATION_TYPE":"U","NORAD_CAT_ID":55796,"ELEMENT_SET_NO":999,"REV_AT_EPOCH":13109,"BSTAR":-5.012984e-5,"MEAN_MOTION_DOT":-7.0e-8,"MEAN_MOTION_DDOT":0},{"OBJECT_NAME":"ONEWEB-0534","OBJECT_ID":"2023-029B","EPOCH":"2025-11-01T12:06:23.699808","MEAN_MOTION":13.20770794,"ECCENTRICITY":0.00018768,"INCLINATION":87.9184,"RA_OF_ASC_NODE":319.8953,"ARG_OF_PERICENTER":97.0293,"MEAN_ANOMALY":263.1054,"EPHEMERIS_TYPE":0,"CLASSIFICATION_TYPE":"U","NORAD_CAT_ID":55797,"ELEMENT_SET_NO":999,"REV_AT_EPOCH":13109,"BSTAR":-5.8639647e-5,"MEAN_MOTION_DOT":-1.1e-7,"MEAN_MOTION_DDOT":0},{"OBJECT_NAME":"ONEWEB-0556","OBJECT_ID":"2023-029C","EPOCH":"2025-11-01T12:15:28.708416","MEAN_MOTION":13.20770533,"ECCENTRICITY":0.00013153,"INCLINATION":87.9191,"RA_OF_ASC_NODE":319.8924,"ARG_OF_PERICENTER":109.5753,"MEAN_ANOMALY":250.5522,"EPHEMERIS_TYPE":0,"CLASSIFICATION_TYPE":"U","NORAD_CAT_ID":55798,"ELEMENT_SET_NO":999,"REV_AT_EPOCH":13109,"BSTAR":-1.6187537e-5,"MEAN_MOTION_DOT":6.0e-8,"MEAN_MOTION_DDOT":0},{"OBJECT_NAME":"ONEWEB-0562","OBJECT_ID":"2023-029D","EPOCH":"2025-11-01T11:57:17.335584","MEAN_MOTION":13.20773027,"ECCENTRICITY":9.572e-5,"INCLINATION":87.9187,"RA_OF_ASC_NODE":319.8793,"ARG_OF_PERICENTER":85.2604,"MEAN_ANOMALY":274.8639,"EPHEMERIS_TYPE":0,"CLASSIFICATION_TYPE":"U","NORAD_CAT_ID":55799,"ELEMENT_SET_NO":999,"REV_AT_EPOCH":13109,"BSTAR":0.00015279351,"MEAN_MOTION_DOT":7.5e-7,"MEAN_MOTION_DDOT":0},{"OBJECT_NAME":"ONEWEB-0563","OBJECT_ID":"2023-029E","EPOCH":"2025-11-01T11:48:12.420288","MEAN_MOTION":13.20770563,"ECCENTRICITY":0.00018846,"INCLINATION":87.9192,"RA_OF_ASC_NODE":319.9058,"ARG_OF_PERICENTER":101.5011,"MEAN_ANOMALY":258.6334,"EPHEMERIS_TYPE":0,"CLASSIFICATION_TYPE":"U","NORAD_CAT_ID":55800,"ELEMENT_SET_NO":999,"REV_AT_EPOCH":13108,"BSTAR":-3.1542802e-5,"MEAN_MOTION_DOT":0,"MEAN_MOTION_DDOT":0},{"OBJECT_NAME":"ONEWEB-0564","OBJECT_ID":"2023-029F","EPOCH":"2025-11-01T11:39:07.280352","MEAN_MOTION":13.2077143,"ECCENTRICITY":0.00014885,"INCLINATION":87.9189,"RA_OF_ASC_NODE":319.8854,"ARG_OF_PERICENTER":87.3102,"MEAN_ANOMALY":272.8202,"EPHEMERIS_TYPE":0,"CLASSIFICATION_TYPE":"U","NORAD_CAT_ID":55801,"ELEMENT_SET_NO":999,"REV_AT_EPOCH":13109,"BSTAR":-1.6965721e-5,"MEAN_MOTION_DOT":6.0e-8,"MEAN_MOTION_DDOT":0}]
